CTC2_L_00581001-01
1 87186U 23197VU  26037.47798611  .00000000  00000+0  00000-0 0  9992
2 87186  55.0000   0.0000 0000000   0.0000   0.0000  3.34706426    18
CTC2_L_00581001-02
1 87187U 23916MF  26037.47798611  .00000000  00000+0  00000-0 0  9992
2 87187  55.0000   0.0000 0000000   0.0000  36.0000  3.34706426    18
CTC2_L_00581001-03
1 87188U 22649XF  26037.47798611  .00000000  00000+0  00000-0 0  9995
2 87188  55.0000   0.0000 0000000   0.0000  72.0000  3.34706426    19
CTC2_L_00581001-04
1 87189U 23388NL  26037.47798611  .00000000  00000+0  00000-0 0  9997
2 87189  55.0000   0.0000 0000000   0.0000 108.0000  3.34706426    10
CTC2_L_00581001-05
1 87190U 22744GL  26037.47798611  .00000000  00000+0  00000-0 0  9994
2 87190  55.0000   0.0000 0000000   0.0000 144.0000  3.34706426    12
CTC2_L_00581001-06
1 87191U 24233V   26037.47798611  .00000000  00000+0  00000-0 0  9990
2 87191  55.0000   0.0000 0000000   0.0000 180.0000  3.34706426    13
CTC2_L_00581001-07
1 87192U 25097RK  26037.47798611  .00000000  00000+0  00000-0 0  9990
2 87192  55.0000   0.0000 0000000   0.0000 216.0000  3.34706426    14
CTC2_L_00581001-08
1 87193U 22140DT  26037.47798611  .00000000  00000+0  00000-0 0  9997
2 87193  55.0000   0.0000 0000000   0.0000 252.0000  3.34706426    15
CTC2_L_00581001-09
1 87194U 25918RR  26037.47798611  .00000000  00000+0  00000-0 0  9994
2 87194  55.0000   0.0000 0000000   0.0000 288.0000  3.34706426    15
CTC2_L_00581001-10
1 87195U 25062TJ  26037.47798611  .00000000  00000+0  00000-0 0  9995
2 87195  55.0000   0.0000 0000000   0.0000 324.0000  3.34706426    17
CTC2_L_00581002-01
1 87196U 24881XH  26037.47798611  .00000000  00000+0  00000-0 0  9994
2 87196  55.0000  30.0000 0000000   0.0000  12.0000  3.34706426    15
CTC2_L_00581002-02
1 87197U 22902MO  26037.47798611  .00000000  00000+0  00000-0 0  9997
2 87197  55.0000  30.0000 0000000   0.0000  48.0000  3.34706426    15
CTC2_L_00581002-03
1 87198U 26047XV  26037.47798611  .00000000  00000+0  00000-0 0  9992
2 87198  55.0000  30.0000 0000000   0.0000  84.0000  3.34706426    16
CTC2_L_00581002-04
1 87199U 24113TV  26037.47798611  .00000000  00000+0  00000-0 0  9995
2 87199  55.0000  30.0000 0000000   0.0000 120.0000  3.34706426    18
CTC2_L_00581002-05
1 87200U 24054VH  26037.47798611  .00000000  00000+0  00000-0 0  9992
2 87200  55.0000  30.0000 0000000   0.0000 156.0000  3.34706426    10
CTC2_L_00581002-06
1 87201U 25818CQ  26037.47798611  .00000000  00000+0  00000-0 0  9992
2 87201  55.0000  30.0000 0000000   0.0000 192.0000  3.34706426    11
CTC2_L_00581002-07
1 87202U 24096VF  26037.47798611  .00000000  00000+0  00000-0 0  9990
2 87202  55.0000  30.0000 0000000   0.0000 228.0000  3.34706426    12
CTC2_L_00581002-08
1 87203U 25170PK  26037.47798611  .00000000  00000+0  00000-0 0  9995
2 87203  55.0000  30.0000 0000000   0.0000 264.0000  3.34706426    13
CTC2_L_00581002-09
1 87204U 23125XJ  26037.47798611  .00000000  00000+0  00000-0 0  9994
2 87204  55.0000  30.0000 0000000   0.0000 300.0000  3.34706426    15
CTC2_L_00581002-10
1 87205U 22062HT  26037.47798611  .00000000  00000+0  00000-0 0  9994
2 87205  55.0000  30.0000 0000000   0.0000 336.0000  3.34706426    15
CTC2_L_00581003-01
1 87206U 23592VZ  26037.47798611  .00000000  00000+0  00000-0 0  9994
2 87206  55.0000  60.0000 0000000   0.0000  24.0000  3.34706426    13
CTC2_L_00581003-02
1 87207U 26192SN  26037.47798611  .00000000  00000+0  00000-0 0  9994
2 87207  55.0000  60.0000 0000000   0.0000  60.0000  3.34706426    14
CTC2_L_00581003-03
1 87208U 24806SW  26037.47798611  .00000000  00000+0  00000-0 0  9995
2 87208  55.0000  60.0000 0000000   0.0000  96.0000  3.34706426    14
CTC2_L_00581003-04
1 87209U 26985GV  26037.47798611  .00000000  00000+0  00000-0 0  9996
2 87209  55.0000  60.0000 0000000   0.0000 132.0000  3.34706426    16
CTC2_L_00581003-05
1 87210U 23646YA  26037.47798611  .00000000  00000+0  00000-0 0  9999
2 87210  55.0000  60.0000 0000000   0.0000 168.0000  3.34706426    17
CTC2_L_00581003-06
1 87211U 26548BN  26037.47798611  .00000000  00000+0  00000-0 0  9994
2 87211  55.0000  60.0000 0000000   0.0000 204.0000  3.34706426    19
CTC2_L_00581003-07
1 87212U 25474NQ  26037.47798611  .00000000  00000+0  00000-0 0  9992
2 87212  55.0000  60.0000 0000000   0.0000 240.0000  3.34706426    10
CTC2_L_00581003-08
1 87213U 22113KA  26037.47798611  .00000000  00000+0  00000-0 0  9990
2 87213  55.0000  60.0000 0000000   0.0000 276.0000  3.34706426    10
CTC2_L_00581003-09
1 87214U 26441SS  26037.47798611  .00000000  00000+0  00000-0 0  9999
2 87214  55.0000  60.0000 0000000   0.0000 312.0000  3.34706426    12
CTC2_L_00581003-10
1 87215U 25702QJ  26037.47798611  .00000000  00000+0  00000-0 0  9999
2 87215  55.0000  60.0000 0000000   0.0000 348.0000  3.34706426    12
CTC2_L_00581004-01
1 87216U 26566YJ  26037.47798611  .00000000  00000+0  00000-0 0  9999
2 87216  55.0000  90.0000 0000000   0.0000  36.0000  3.34706426    10
CTC2_L_00581004-02
1 87217U 25813AH  26037.47798611  .00000000  00000+0  00000-0 0  9994
2 87217  55.0000  90.0000 0000000   0.0000  72.0000  3.34706426    11
CTC2_L_00581004-03
1 87218U 26612PX  26037.47798611  .00000000  00000+0  00000-0 0  9993
2 87218  55.0000  90.0000 0000000   0.0000 108.0000  3.34706426    12
CTC2_L_00581004-04
1 87219U 25884XT  26037.47798611  .00000000  00000+0  00000-0 0  9994
2 87219  55.0000  90.0000 0000000   0.0000 144.0000  3.34706426    13
CTC2_L_00581004-05
1 87220U 26861WL  26037.47798611  .00000000  00000+0  00000-0 0  9992
2 87220  55.0000  90.0000 0000000   0.0000 180.0000  3.34706426    15
CTC2_L_00581004-06
1 87221U 26407QE  26037.47798611  .00000000  00000+0  00000-0 0  9999
2 87221  55.0000  90.0000 0000000   0.0000 216.0000  3.34706426    16
CTC2_L_00581004-07
1 87222U 24015G   26037.47798611  .00000000  00000+0  00000-0 0  9993
2 87222  55.0000  90.0000 0000000   0.0000 252.0000  3.34706426    17
CTC2_L_00581004-08
1 87223U 22672VH  26037.47798611  .00000000  00000+0  00000-0 0  9991
2 87223  55.0000  90.0000 0000000   0.0000 288.0000  3.34706426    17
CTC2_L_00581004-09
1 87224U 24506N   26037.47798611  .00000000  00000+0  00000-0 0  9990
2 87224  55.0000  90.0000 0000000   0.0000 324.0000  3.34706426    19
CTC2_L_00581004-10
1 87225U 24077XR  26037.47798611  .00000000  00000+0  00000-0 0  9994
2 87225  55.0000  90.0000 0000000   0.0000   0.0000  3.34706426    11
CTC2_L_00581005-01
1 87226U 25391IA  26037.47798611  .00000000  00000+0  00000-0 0  9995
2 87226  55.0000 120.0000 0000000   0.0000  48.0000  3.34706426    18
CTC2_L_00581005-02
1 87227U 22545YV  26037.47798611  .00000000  00000+0  00000-0 0  9994
2 87227  55.0000 120.0000 0000000   0.0000  84.0000  3.34706426    19
CTC2_L_00581005-03
1 87228U 25515XD  26037.47798611  .00000000  00000+0  00000-0 0  9995
2 87228  55.0000 120.0000 0000000   0.0000 120.0000  3.34706426    11
CTC2_L_00581005-04
1 87229U 24395XS  26037.47798611  .00000000  00000+0  00000-0 0  9991
2 87229  55.0000 120.0000 0000000   0.0000 156.0000  3.34706426    11
CTC2_L_00581005-05
1 87230U 23565IS  26037.47798611  .00000000  00000+0  00000-0 0  9991
2 87230  55.0000 120.0000 0000000   0.0000 192.0000  3.34706426    13
CTC2_L_00581005-06
1 87231U 22489BG  26037.47798611  .00000000  00000+0  00000-0 0  9996
2 87231  55.0000 120.0000 0000000   0.0000 228.0000  3.34706426    14
CTC2_L_00581005-07
1 87232U 22423FV  26037.47798611  .00000000  00000+0  00000-0 0  9995
2 87232  55.0000 120.0000 0000000   0.0000 264.0000  3.34706426    15
CTC2_L_00581005-08
1 87233U 24473TG  26037.47798611  .00000000  00000+0  00000-0 0  9993
2 87233  55.0000 120.0000 0000000   0.0000 300.0000  3.34706426    17
CTC2_L_00581005-09
1 87234U 26238FL  26037.47798611  .00000000  00000+0  00000-0 0  9995
2 87234  55.0000 120.0000 0000000   0.0000 336.0000  3.34706426    17
CTC2_L_00581005-10
1 87235U 22527EX  26037.47798611  .00000000  00000+0  00000-0 0  9993
2 87235  55.0000 120.0000 0000000   0.0000  12.0000  3.34706426    19
CTC2_L_00581006-01
1 87236U 24791WM  26037.47798611  .00000000  00000+0  00000-0 0  9999
2 87236  55.0000 150.0000 0000000   0.0000  60.0000  3.34706426    16
CTC2_L_00581006-02
1 87237U 22376EI  26037.47798611  .00000000  00000+0  00000-0 0  9997
2 87237  55.0000 150.0000 0000000   0.0000  96.0000  3.34706426    16
CTC2_L_00581006-03
1 87238U 26191G   26037.47798611  .00000000  00000+0  00000-0 0  9997
2 87238  55.0000 150.0000 0000000   0.0000 132.0000  3.34706426    18
CTC2_L_00581006-04
1 87239U 23076YJ  26037.47798611  .00000000  00000+0  00000-0 0  9997
2 87239  55.0000 150.0000 0000000   0.0000 168.0000  3.34706426    18
CTC2_L_00581006-05
1 87240U 23718EQ  26037.47798611  .00000000  00000+0  00000-0 0  9992
2 87240  55.0000 150.0000 0000000   0.0000 204.0000  3.34706426    11
CTC2_L_00581006-06
1 87241U 22814EZ  26037.47798611  .00000000  00000+0  00000-0 0  9999
2 87241  55.0000 150.0000 0000000   0.0000 240.0000  3.34706426    12
CTC2_L_00581006-07
1 87242U 25896VI  26037.47798611  .00000000  00000+0  00000-0 0  9993
2 87242  55.0000 150.0000 0000000   0.0000 276.0000  3.34706426    12
CTC2_L_00581006-08
1 87243U 23347OZ  26037.47798611  .00000000  00000+0  00000-0 0  9993
2 87243  55.0000 150.0000 0000000   0.0000 312.0000  3.34706426    14
CTC2_L_00581006-09
1 87244U 23650QP  26037.47798611  .00000000  00000+0  00000-0 0  9991
2 87244  55.0000 150.0000 0000000   0.0000 348.0000  3.34706426    14
CTC2_L_00581006-10
1 87245U 25958YW  26037.47798611  .00000000  00000+0  00000-0 0  9995
2 87245  55.0000 150.0000 0000000   0.0000  24.0000  3.34706426    16
CTC2_L_00581007-01
1 87246U 26173RG  26037.47798611  .00000000  00000+0  00000-0 0  9996
2 87246  55.0000 180.0000 0000000   0.0000  72.0000  3.34706426    13
CTC2_L_00581007-02
1 87247U 22014UZ  26037.47798611  .00000000  00000+0  00000-0 0  9997
2 87247  55.0000 180.0000 0000000   0.0000 108.0000  3.34706426    14
